#dP2020  5 23  0  0  0.00000000      96 __u+U ITR00 FIT  IAC
## 2106 518400.00000000   900.00000000 58992 0.0000000000000
+  116   C01C02C03C04C05C06C07C08C09C10C11C12C13C14C16C19C20
+        C21C22C23C24C25C26C27C28C29C30C32C33C34C35C36C37C45
+        E01E02E03E04E05E07E08E09E11E12E13E14E15E18E19E21E24
+        E25E26E27E30E31E33E36G01G02G03G04G05G06G07G08G09G10
+        G11G12G13G14G15G16G17G18G19G20G21G23G24G25G26G27G28
+        G29G30G31G32J01J02J03J07R01R02R03R04R05R07R08R09R11
+        R12R13R14R15R16R17R18R19R20R21R22R23R24R26  0  0  0
++        16 13 13 13 13  8  8  8  8  8  8  8  8  8  8  8  7
++         8  8  7  8  7  8  8  8  7  8  8  8  8  8  8  8  0
++         5  4  4  5  5  5  4  5  5  5  4  4  4  5  5  5  5
++         4  4  5  4  4  5  4  4  3  3  3  3  3  3  4  3  3
++         4  7  3  3  3  3  4  3  4  3  4  4  4  4  3  3  4
++         3  3  4  3  8  8  8 14  6  5  6  6  5  5  5  5  8
++         6  6  8  8  6  5  6  9  9  5  5  5  5  9  0  0  0
%c M  cc GPS ccc cccc cccc cccc cccc ccccc ccccc ccccc ccccc
%c cc cc ccc ccc cccc cccc cccc cccc ccccc ccccc ccccc ccccc
%f  0.0000000  0.000000000  0.00000000000  0.000000000000000
%f  0.0000000  0.000000000  0.00000000000  0.000000000000000
%i    0    0    0    0      0      0      0      0         0
%i    0    0    0    0      0      0      0      0         0
/* INFORMATION & ANALYSIS CENTER (IAC)            RAPID DATA
/* S/V CLOCKS ARE ALIGNED TO GNSS TIME                      
/* G:C1WC2W R:C1PC2P E:C1XC5X C:C2IC6I J:C1CC2S             
/* PCV:IGS14_2101 OL/AL:FES2004  NONE     YN ORB:CoN CLK:CoN
*  2020 05 23  0 30  0.00000000
PC01 -34355.768585  24474.570914    781.472149   -488.504871
PC02   4380.409819  41906.933869  -1272.580393    332.693386
PC03 -14739.844757  39481.615151   -945.305026    795.227645
PC04 -39609.481482  14461.363665     59.345439   -205.260930
PC05  21900.119426  36000.416351   -922.128413   -327.877005
PC06 -18862.785966  37362.802224  -2085.569099    737.078789
PC07  -9017.456946  27552.658689  30947.108858    -54.344663
PC08 -23094.696473  20082.929187 -29069.114074   -267.742527
PC09  -8221.488227  38659.557246  14413.319524    558.901533
PC10   5468.852046  35009.371801  23342.488254   -282.553754
PC11  17985.236296    281.400342 -21267.785477   -381.476537
PC12   4438.135521  17027.856012 -21636.092751    379.988470
PC13  -6729.901292  23401.795911 -34378.834896    450.314289
PC14  18033.673884  11321.306350  18103.780571    439.053173
PC16 -16749.545254  38577.184345    539.011444   -636.772000
PC19 -16914.442902   -923.727820 -22139.834926    420.777303
PC20 -16413.847896 -19132.727500 -11908.242280   -869.496125
PC21   6085.057284  26626.264174  -5766.244543   -433.804026
PC22  -7611.665420  18240.284849 -19701.877452   -800.696050
PC23  15965.487777 -11561.285195 -19751.794170   -869.520116
PC24  22322.201995  12067.876061  11587.774803   -813.681446
PC25  27189.677688   -635.974636  -6219.219687   -626.187057
PC26   5603.454042  16421.632262  21845.745267    690.479268
PC27   3894.384971 -22257.060643  16373.240437    334.646543
PC28  17827.181479 -21466.118153    178.121704   -227.231606
PC29 -20993.066625   8944.920270  16051.107239    232.182780
PC30 -12453.676292  -9859.439366  22939.839938    320.911052
PC32  -6241.519078 -26569.442339   5805.308820   -888.608450
PC33  16994.238149    924.608256  22132.336556   -830.277661
PC34  12834.017159   9449.329170 -22915.680271   -743.098874
PC35 -17163.357144  21979.066902    -12.570878   -832.139341
PC36 -27247.283685   -137.783671   6029.026876   -833.505554
PC37  -4514.229036 -16533.796910 -22005.971462   -844.101799
PC45      0.000000      0.000000      0.000000 999999.999999
PE01  17140.945252  21073.551107  11759.581054   -862.117413
PE02 -17211.376309 -21063.136415 -11688.753700    135.204622
PE03  -7216.671285 -25742.417944 -12681.065311   -301.625163
PE04  16123.366918   8175.327373  23451.167950   -530.803492
PE05   6030.798502 -28421.843005   5655.465683   -377.968089
PE07 -15635.439288  14500.348884 -20520.433667   -385.487907
PE08 -16077.218553  -7806.563939 -23583.596568   6174.461431
PE09  15408.273553 -14668.338824  20585.840055   6052.617961
PE11  26364.020691 -13477.826457    440.194753   2995.802473
PE12  23876.410142    954.507947 -17484.679862   5792.175901
PE13 -26365.769591  13440.326478   -201.004695    401.040988
PE14  13409.201055 -23482.772126  -3899.330545  -1023.306272
PE15 -23942.363975   -665.906682  17390.998066    866.128045
PE18  -2332.217637  27985.845332 -11189.168159  -1122.813243
PE19   5871.141604  26853.529696  10992.560196  -2506.838643
PE21  -1551.311588  17878.427197  23536.418624   -600.412948
PE24  19868.342721  -3963.546429 -21588.118529   5441.726175
PE25   1692.866028 -17814.443671 -23575.798703   -511.006320
PE26 -12985.704672  19688.717984 -17882.501676   3158.736708
PE27 -19679.913760   4202.681150  21708.016493    214.350607
PE30 -26076.592196 -12250.759675   6796.316193   3885.926984
PE31  26159.288698  11879.865329  -7130.040277   -472.630875
PE33   7470.333640  14374.496405 -24769.944602   -466.982570
PE36  13317.374476 -19662.381053  17679.505505    556.692778
PG01   3454.760164  14497.856255 -22211.798943   -383.925098
PG02  18414.722028 -14373.434952  13224.247392   -460.239545
PG03  10670.919132  22490.145058  -9465.806112   -184.424264
PG04   2107.141436  22274.363645  14302.004824    -92.858552
PG05   7309.311841 -14203.912590  21053.830629    -13.189484
PG06  25465.590226  -6970.041357   3158.164863   -276.270177
PG07  21080.263124   7184.168652  15136.936362   -287.269039
PG08  -5796.187055  25498.888690  -3767.404714    -34.933815
PG09  10840.161312  13166.797395  20309.368843   -222.416268
PG10 -20265.939425  -6636.628786 -15892.319507   -349.103328
PG11  -5312.271086  20410.564304 -16811.117713   -269.771624
PG12  -8545.380230 -23125.863833 -10323.447135    114.811532
PG13  13264.105202 -22818.749737   2357.820446     12.151544
PG14 -17204.184544  13363.602658 -14714.634863    -11.141959
PG15   2552.770977 -25871.553185  -4649.355050   -229.383256
PG16  -6891.588123  14489.775511  20856.978170   -161.401286
PG17  16269.088639  -4213.996565 -20134.951786    269.001661
PG18 -20442.143489  -7404.369423  15261.759611    198.044500
PG19  17609.076632 -11592.069178 -16442.891410   -155.209089
PG20 -21973.972061 -14118.052896  -5507.228116    527.647606
PG21 -22903.773966  -3909.164705  13394.153711      2.080337
PG23  12953.065144  10027.746275  21248.041739   -112.011686
PG24  -2111.364839 -15740.526939 -21467.333736    -13.358905
PG25 -16380.372280 -21032.114544  -1808.339690      6.289921
PG26 -15787.475167   4942.531709  20783.691638    211.461351
PG27 -12451.097694  22288.373901   6511.233404   -300.867857
PG28  18787.445340   6893.405264 -16806.432563    715.141916
PG29  -6902.570681 -16613.747257  19485.425426   -110.598226
PG30  26137.532972    -30.618509   5367.892414   -225.884450
PG31 -25375.684243   7313.646025   4548.487828    -44.186665
PG32 -16661.991876   5503.927563 -19811.731201    285.808804
PJ01 -19521.023176  25745.220966 -22485.267510   -299.695578
PJ02 -27098.001664  21350.148018  29093.216785     -0.178559
PJ03 -32611.215912  25997.295796  11128.336658     -3.259505
PJ07 -25399.874713  33649.995822    -19.451844      0.011024
PR01  -1443.693063 -24423.054551   7195.174884     61.933113
PR02  -9966.712326 -19205.945247 -13506.031427    427.975628
PR03 -11400.750762  -2151.780326 -22673.702338     15.479531
PR04  -6089.345789  15946.861695 -18921.967166     50.081974
PR05   2470.897659  24987.785440  -4420.356058     50.940795
PR07  11338.063127   1404.702176  22845.181867    -36.805658
PR08   6257.315823 -15943.127690  18967.311861    -52.381967
PR09  22381.527477  10826.796469   5880.067568    134.022284
PR11  12756.235205  -6401.728871 -21141.349435    -24.507946
PR12  -4846.050729 -12562.231676 -21644.184038    132.964083
PR13 -20430.824902 -11804.430000  -9702.557821    -39.022164
PR14 -23798.382624  -4252.082745   8122.085995     51.503532
PR15 -13465.648621   5762.032011  20901.569873    106.514789
PR16   5495.147527  12688.932302  21383.950338     -3.699342
PR17 -19066.242930   6874.506370  15513.964727    326.988839
PR18 -19384.821529  16526.574571   -405.842570     36.272873
PR19 -10181.551865  17211.274216 -15838.246460    -94.555489
PR20   7398.363243   7354.612496 -23274.823385   -412.371926
PR21  19334.488127  -7542.311499 -14819.495378   -126.300764
PR22  18630.848260 -17257.572052   3023.447047     -2.510885
PR23   4046.344083 -15118.191890  20133.680253    307.249234
PR24  -8333.180310  -7177.610461  23028.135799     -0.414721
PR26   3400.996014  10564.166504 -22960.437869 999999.999999
EOF
